STARLINK-30957          
1 58453U 23183S   26067.99738398  .00002651  00000+0  10847-3 0  9995
2 58453  43.0053  45.0847 0001531 274.8140  85.2537 15.26747443126637
GESAT GEN1              
1 62612U 25009D   26068.72662138  .00010041  00000+0  38326-3 0  9990
2 62612  97.4058 151.4598 0000888  98.3547 261.7793 15.26847505 63732
