[{"OBJECT_NAME":"STARLINK-30957","OBJECT_ID":"2023-183S","EPOCH":"2026-03-08T23:56:13.975872","MEAN_MOTION":15.26747443,"ECCENTRICITY":0.00015318,"INCLINATION":43.0053,"RA_OF_ASC_NODE":45.0847,"ARG_OF_PERICENTER":274.814,"MEAN_ANOMALY":85.2537,"EPHEMERIS_TYPE":0,"CLASSIFICATION_TYPE":"U","NORAD_CAT_ID":58453,"ELEMENT_SET_NO":999,"REV_AT_EPOCH":12663,"BSTAR":0.00010846867,"MEAN_MOTION_DOT":2.651e-5,"MEAN_MOTION_DDOT":0},{"OBJECT_NAME":"GESAT GEN1","OBJECT_ID":"2025-009D","EPOCH":"2026-03-09T17:26:20.087232","MEAN_MOTION":15.26847505,"ECCENTRICITY":8.879e-5,"INCLINATION":97.4058,"RA_OF_ASC_NODE":151.4598,"ARG_OF_PERICENTER":98.3547,"MEAN_ANOMALY":261.7793,"EPHEMERIS_TYPE":0,"CLASSIFICATION_TYPE":"U","NORAD_CAT_ID":62612,"ELEMENT_SET_NO":999,"REV_AT_EPOCH":6373,"BSTAR":0.00038326131,"MEAN_MOTION_DOT":0.00010041,"MEAN_MOTION_DDOT":0}]
